[{"OBJECT_NAME":"OBJECT C","OBJECT_ID":"2024-203C","EPOCH":"2026-03-08T19:37:32.628864","MEAN_MOTION":15.23715458,"ECCENTRICITY":0.00114765,"INCLINATION":97.4332,"RA_OF_ASC_NODE":137.9023,"ARG_OF_PERICENTER":346.2559,"MEAN_ANOMALY":13.8364,"EPHEMERIS_TYPE":0,"CLASSIFICATION_TYPE":"U","NORAD_CAT_ID":61871,"ELEMENT_SET_NO":999,"REV_AT_EPOCH":7357,"BSTAR":0.00073309113,"MEAN_MOTION_DOT":0.00017593,"MEAN_MOTION_DDOT":0},{"OBJECT_NAME":"GITAI-SC1","OBJECT_ID":"2024-247M","EPOCH":"2026-03-09T05:02:48.475392","MEAN_MOTION":15.20258622,"ECCENTRICITY":0.00021257,"INCLINATION":45.001,"RA_OF_ASC_NODE":131.8038,"ARG_OF_PERICENTER":277.7935,"MEAN_ANOMALY":82.2703,"EPHEMERIS_TYPE":0,"CLASSIFICATION_TYPE":"U","NORAD_CAT_ID":62388,"ELEMENT_SET_NO":999,"REV_AT_EPOCH":6751,"BSTAR":0.00028634303,"MEAN_MOTION_DOT":6.055e-5,"MEAN_MOTION_DDOT":0}]
